[{"OBJECT_NAME":"STARLINK-2418","OBJECT_ID":"2021-027F","EPOCH":"2021-09-10T13:42:44.252064","MEAN_MOTION":15.06396349,"ECCENTRICITY":7.71e-5,"INCLINATION":53.0562,"RA_OF_ASC_NODE":318.8766,"ARG_OF_PERICENTER":173.6953,"MEAN_ANOMALY":186.4046,"EPHEMERIS_TYPE":0,"CLASSIFICATION_TYPE":"U","NORAD_CAT_ID":48097,"ELEMENT_SET_NO":999,"REV_AT_EPOCH":2534,"BSTAR":0.00010044,"MEAN_MOTION_DOT":1.215e-5,"MEAN_MOTION_DDOT":0},{"OBJECT_NAME":"STARLINK-2421","OBJECT_ID":"2021-027G","EPOCH":"2021-09-10T16:20:38.253120","MEAN_MOTION":15.06401023,"ECCENTRICITY":9.24e-5,"INCLINATION":53.057,"RA_OF_ASC_NODE":328.3863,"ARG_OF_PERICENTER":138.3561,"MEAN_ANOMALY":221.7499,"EPHEMERIS_TYPE":0,"CLASSIFICATION_TYPE":"U","NORAD_CAT_ID":48098,"ELEMENT_SET_NO":999,"REV_AT_EPOCH":2521,"BSTAR":1.1735e-5,"MEAN_MOTION_DOT":-1.06e-6,"MEAN_MOTION_DDOT":0},{"OBJECT_NAME":"STARLINK-2428","OBJECT_ID":"2021-027H","EPOCH":"2021-09-10T09:41:13.756416","MEAN_MOTION":15.06396393,"ECCENTRICITY":9.3e-5,"INCLINATION":53.0525,"RA_OF_ASC_NODE":339.6284,"ARG_OF_PERICENTER":113.48,"MEAN_ANOMALY":246.6287,"EPHEMERIS_TYPE":0,"CLASSIFICATION_TYPE":"U","NORAD_CAT_ID":48099,"ELEMENT_SET_NO":999,"REV_AT_EPOCH":2503,"BSTAR":0.0001139,"MEAN_MOTION_DOT":1.416e-5,"MEAN_MOTION_DDOT":0},{"OBJECT_NAME":"STARLINK-2430","OBJECT_ID":"2021-027J","EPOCH":"2021-09-11T02:16:26.378400","MEAN_MOTION":15.06394917,"ECCENTRICITY":0.0001157,"INCLINATION":53.0571,"RA_OF_ASC_NODE":316.5317,"ARG_OF_PERICENTER":153.0715,"MEAN_ANOMALY":207.0334,"EPHEMERIS_TYPE":0,"CLASSIFICATION_TYPE":"U","NORAD_CAT_ID":48100,"ELEMENT_SET_NO":999,"REV_AT_EPOCH":2502,"BSTAR":-2.4883e-5,"MEAN_MOTION_DOT":-6.52e-6,"MEAN_MOTION_DDOT":0},{"OBJECT_NAME":"STARLINK-2436","OBJECT_ID":"2021-027K","EPOCH":"2021-09-10T16:19:16.546368","MEAN_MOTION":15.06401804,"ECCENTRICITY":7.79e-5,"INCLINATION":53.0576,"RA_OF_ASC_NODE":328.3928,"ARG_OF_PERICENTER":160.5179,"MEAN_ANOMALY":199.584,"EPHEMERIS_TYPE":0,"CLASSIFICATION_TYPE":"U","NORAD_CAT_ID":48101,"ELEMENT_SET_NO":999,"REV_AT_EPOCH":2482,"BSTAR":2.6066e-5,"MEAN_MOTION_DOT":1.07e-6,"MEAN_MOTION_DDOT":0},{"OBJECT_NAME":"STARLINK-2437","OBJECT_ID":"2021-027L","EPOCH":"2021-09-10T14:09:16.114176","MEAN_MOTION":15.06400686,"ECCENTRICITY":7.87e-5,"INCLINATION":53.0519,"RA_OF_ASC_NODE":318.8259,"ARG_OF_PERICENTER":147.9818,"MEAN_ANOMALY":212.1219,"EPHEMERIS_TYPE":0,"CLASSIFICATION_TYPE":"U","NORAD_CAT_ID":48102,"ELEMENT_SET_NO":999,"REV_AT_EPOCH":2534,"BSTAR":0.00011673,"MEAN_MOTION_DOT":1.458e-5,"MEAN_MOTION_DDOT":0},{"OBJECT_NAME":"STARLINK-2438","OBJECT_ID":"2021-027M","EPOCH":"2021-09-10T15:55:25.164480","MEAN_MOTION":15.0639921,"ECCENTRICITY":8.27e-5,"INCLINATION":53.0439,"RA_OF_ASC_NODE":318.5115,"ARG_OF_PERICENTER":141.8878,"MEAN_ANOMALY":218.2169,"EPHEMERIS_TYPE":0,"CLASSIFICATION_TYPE":"U","NORAD_CAT_ID":48103,"ELEMENT_SET_NO":999,"REV_AT_EPOCH":2535,"BSTAR":0.00011057,"MEAN_MOTION_DOT":1.366e-5,"MEAN_MOTION_DDOT":0},{"OBJECT_NAME":"STARLINK-2439","OBJECT_ID":"2021-027N","EPOCH":"2021-09-10T16:13:20.189568","MEAN_MOTION":15.06397868,"ECCENTRICITY":7.5e-5,"INCLINATION":53.057,"RA_OF_ASC_NODE":323.4088,"ARG_OF_PERICENTER":186.5899,"MEAN_ANOMALY":173.5081,"EPHEMERIS_TYPE":0,"CLASSIFICATION_TYPE":"U","NORAD_CAT_ID":48104,"ELEMENT_SET_NO":999,"REV_AT_EPOCH":2529,"BSTAR":4.6474e-5,"MEAN_MOTION_DOT":4.11e-6,"MEAN_MOTION_DDOT":0},{"OBJECT_NAME":"STARLINK-2440","OBJECT_ID":"2021-027P","EPOCH":"2021-09-11T01:53:55.011552","MEAN_MOTION":15.73228509,"ECCENTRICITY":0.0004893,"INCLINATION":53.0433,"RA_OF_ASC_NODE":283.3454,"ARG_OF_PERICENTER":358.841,"MEAN_ANOMALY":1.2596,"EPHEMERIS_TYPE":0,"CLASSIFICATION_TYPE":"U","NORAD_CAT_ID":48105,"ELEMENT_SET_NO":999,"REV_AT_EPOCH":2548,"BSTAR":0.00012655,"MEAN_MOTION_DOT":0.00017207,"MEAN_MOTION_DDOT":0},{"OBJECT_NAME":"STARLINK-2442","OBJECT_ID":"2021-027Q","EPOCH":"2021-09-10T16:47:08.966976","MEAN_MOTION":15.06398484,"ECCENTRICITY":6.79e-5,"INCLINATION":53.0556,"RA_OF_ASC_NODE":318.2992,"ARG_OF_PERICENTER":139.5153,"MEAN_ANOMALY":220.5887,"EPHEMERIS_TYPE":0,"CLASSIFICATION_TYPE":"U","NORAD_CAT_ID":48106,"ELEMENT_SET_NO":999,"REV_AT_EPOCH":2536,"BSTAR":2.2113e-5,"MEAN_MOTION_DOT":4.8e-7,"MEAN_MOTION_DDOT":0},{"OBJECT_NAME":"STARLINK-2443","OBJECT_ID":"2021-027R","EPOCH":"2021-09-10T13:58:39.557856","MEAN_MOTION":15.06402472,"ECCENTRICITY":7.69e-5,"INCLINATION":53.0556,"RA_OF_ASC_NODE":318.8239,"ARG_OF_PERICENTER":120.8401,"MEAN_ANOMALY":239.2664,"EPHEMERIS_TYPE":0,"CLASSIFICATION_TYPE":"U","NORAD_CAT_ID":48107,"ELEMENT_SET_NO":999,"REV_AT_EPOCH":2534,"BSTAR":7.9682e-6,"MEAN_MOTION_DOT":-1.62e-6,"MEAN_MOTION_DDOT":0},{"OBJECT_NAME":"STARLINK-2444","OBJECT_ID":"2021-027S","EPOCH":"2021-09-10T14:55:42.637728","MEAN_MOTION":15.06403058,"ECCENTRICITY":0.0001089,"INCLINATION":53.0574,"RA_OF_ASC_NODE":328.6538,"ARG_OF_PERICENTER":148.9503,"MEAN_ANOMALY":211.155,"EPHEMERIS_TYPE":0,"CLASSIFICATION_TYPE":"U","NORAD_CAT_ID":48108,"ELEMENT_SET_NO":999,"REV_AT_EPOCH":2520,"BSTAR":3.9677e-5,"MEAN_MOTION_DOT":3.1e-6,"MEAN_MOTION_DDOT":0},{"OBJECT_NAME":"STARLINK-2445","OBJECT_ID":"2021-027T","EPOCH":"2021-09-10T16:51:09.457056","MEAN_MOTION":15.06400306,"ECCENTRICITY":0.0001016,"INCLINATION":53.0564,"RA_OF_ASC_NODE":338.2837,"ARG_OF_PERICENTER":128.7075,"MEAN_ANOMALY":231.4004,"EPHEMERIS_TYPE":0,"CLASSIFICATION_TYPE":"U","NORAD_CAT_ID":48109,"ELEMENT_SET_NO":999,"REV_AT_EPOCH":2508,"BSTAR":1.6063e-5,"MEAN_MOTION_DOT":-4.2e-7,"MEAN_MOTION_DDOT":0},{"OBJECT_NAME":"STARLINK-2447","OBJECT_ID":"2021-027U","EPOCH":"2021-09-10T16:15:20.260512","MEAN_MOTION":15.0639434,"ECCENTRICITY":8.07e-5,"INCLINATION":53.0562,"RA_OF_ASC_NODE":328.3978,"ARG_OF_PERICENTER":145.6257,"MEAN_ANOMALY":214.4784,"EPHEMERIS_TYPE":0,"CLASSIFICATION_TYPE":"U","NORAD_CAT_ID":48110,"ELEMENT_SET_NO":999,"REV_AT_EPOCH":2522,"BSTAR":5.8583e-7,"MEAN_MOTION_DOT":-2.72e-6,"MEAN_MOTION_DDOT":0},{"OBJECT_NAME":"STARLINK-2448","OBJECT_ID":"2021-027V","EPOCH":"2021-09-10T16:08:40.018560","MEAN_MOTION":15.06403414,"ECCENTRICITY":9.82e-5,"INCLINATION":53.0622,"RA_OF_ASC_NODE":328.4017,"ARG_OF_PERICENTER":138.2241,"MEAN_ANOMALY":221.8824,"EPHEMERIS_TYPE":0,"CLASSIFICATION_TYPE":"U","NORAD_CAT_ID":48111,"ELEMENT_SET_NO":999,"REV_AT_EPOCH":2522,"BSTAR":0.00014033,"MEAN_MOTION_DOT":1.81e-5,"MEAN_MOTION_DDOT":0},{"OBJECT_NAME":"STARLINK-2449","OBJECT_ID":"2021-027W","EPOCH":"2021-09-10T17:07:42.777120","MEAN_MOTION":15.06399714,"ECCENTRICITY":0.000105,"INCLINATION":53.059,"RA_OF_ASC_NODE":343.2356,"ARG_OF_PERICENTER":118.5161,"MEAN_ANOMALY":241.5934,"EPHEMERIS_TYPE":0,"CLASSIFICATION_TYPE":"U","NORAD_CAT_ID":48112,"ELEMENT_SET_NO":999,"REV_AT_EPOCH":2501,"BSTAR":0.00016122,"MEAN_MOTION_DOT":2.121e-5,"MEAN_MOTION_DDOT":0},{"OBJECT_NAME":"STARLINK-2450","OBJECT_ID":"2021-027X","EPOCH":"2021-09-10T17:33:37.209888","MEAN_MOTION":15.06400025,"ECCENTRICITY":8.27e-5,"INCLINATION":53.0568,"RA_OF_ASC_NODE":338.1573,"ARG_OF_PERICENTER":142.2285,"MEAN_ANOMALY":217.8762,"EPHEMERIS_TYPE":0,"CLASSIFICATION_TYPE":"U","NORAD_CAT_ID":48113,"ELEMENT_SET_NO":999,"REV_AT_EPOCH":2507,"BSTAR":1.4449e-5,"MEAN_MOTION_DOT":-6.6e-7,"MEAN_MOTION_DDOT":0}]
