STARLINK-2418           
1 48097U 21027F   21253.57134551  .00001215  00000-0  10044-3 0  9995
2 48097  53.0562 318.8766 0000771 173.6953 186.4046 15.06396349 25348
STARLINK-2421           
1 48098U 21027G   21253.68099830 -.00000106  00000-0  11735-4 0  9996
2 48098  53.0570 328.3863 0000924 138.3561 221.7499 15.06401023 25212
STARLINK-2428           
1 48099U 21027H   21253.40363144  .00001416  00000-0  11390-3 0  9999
2 48099  53.0525 339.6284 0000930 113.4800 246.6287 15.06396393 25036
STARLINK-2430           
1 48100U 21027J   21254.09474975 -.00000652  00000-0 -24883-4 0  9998
2 48100  53.0571 316.5317 0001157 153.0715 207.0334 15.06394917 25021
STARLINK-2436           
1 48101U 21027K   21253.68005262  .00000107  00000-0  26066-4 0  9990
2 48101  53.0576 328.3928 0000779 160.5179 199.5840 15.06401804 24820
STARLINK-2437           
1 48102U 21027L   21253.58976984  .00001458  00000-0  11673-3 0  9995
2 48102  53.0519 318.8259 0000787 147.9818 212.1219 15.06400686 25344
STARLINK-2438           
1 48103U 21027M   21253.66348570  .00001366  00000-0  11057-3 0  9993
2 48103  53.0439 318.5115 0000827 141.8878 218.2169 15.06399210 25350
STARLINK-2439           
1 48104U 21027N   21253.67592812  .00000411  00000-0  46474-4 0  9997
2 48104  53.0570 323.4088 0000750 186.5899 173.5081 15.06397868 25291
STARLINK-2440           
1 48105U 21027P   21254.07910893  .00017207  00000-0  12655-3 0  9990
2 48105  53.0433 283.3454 0004893 358.8410   1.2596 15.73228509 25484
STARLINK-2442           
1 48106U 21027Q   21253.69940934  .00000048  00000-0  22113-4 0  9993
2 48106  53.0556 318.2992 0000679 139.5153 220.5887 15.06398484 25364
STARLINK-2443           
1 48107U 21027R   21253.58240229 -.00000162  00000-0  79682-5 0  9994
2 48107  53.0556 318.8239 0000769 120.8401 239.2664 15.06402472 25345
STARLINK-2444           
1 48108U 21027S   21253.62202127  .00000310  00000-0  39677-4 0  9998
2 48108  53.0574 328.6538 0001089 148.9503 211.1550 15.06403058 25206
STARLINK-2445           
1 48109U 21027T   21253.70219279 -.00000042  00000-0  16063-4 0  9991
2 48109  53.0564 338.2837 0001016 128.7075 231.4004 15.06400306 25083
STARLINK-2447           
1 48110U 21027U   21253.67731783 -.00000272  00000-0  58583-6 0  9998
2 48110  53.0562 328.3978 0000807 145.6257 214.4784 15.06394340 25228
STARLINK-2448           
1 48111U 21027V   21253.67268540  .00001810  00000-0  14033-3 0  9992
2 48111  53.0622 328.4017 0000982 138.2241 221.8824 15.06403414 25226
STARLINK-2449           
1 48112U 21027W   21253.71368955  .00002121  00000-0  16122-3 0  9996
2 48112  53.0590 343.2356 0001050 118.5161 241.5934 15.06399714 25016
STARLINK-2450           
1 48113U 21027X   21253.73168067 -.00000066  00000-0  14449-4 0  9999
2 48113  53.0568 338.1573 0000827 142.2285 217.8762 15.06400025 25077
